LEMUR-2-ROUNDTRIPPER    
1 62711U 25009DG  26176.81017905  .00010247  00000+0  74679-3 0  9995
2 62711  97.7251 259.4776 0005632 109.8270 250.3563 15.03922316 78925
LEMUR-2-MYNAMEISJEFF    
1 62712U 25009DH  26176.54243399  .00010532  00000+0  76764-3 0  9998
2 62712  97.7294 259.5966 0004029 135.3275 224.8275 15.03916865 78886
LEMUR-2-LEIA-PHILIP     
1 63246U 25052AN  26176.69041868  .00001187  00000+0  10722-3 0  9990
2 63246  97.6822  68.4981 0003566 181.8583 178.2626 14.97334030 69941
LEMUR-2-LIA-MARTIN      
1 63248U 25052AQ  26176.69262559  .00005308  00000+0  45591-3 0  9995
2 63248  97.6878  68.9877 0003676 142.7676 217.3801 14.97861459 69955
LEMUR-2-DELOITTE-1      
1 63259U 25052BB  26176.67012404  .00003924  00000+0  34015-3 0  9998
2 63259  97.6929  69.2960 0003255  78.9784 281.1804 14.97662465 69963
LEMUR-2-EMERSONROSE     
1 63261U 25052BD  26176.70372552  .00004740  00000+0  39461-3 0  9995
2 63261  97.6878  69.9022 0001994  77.7465 282.3981 14.99135608 70019
LEMUR-2-MARACHE-FRAN    
1 63262U 25052BE  26176.67320081  .00005531  00000+0  44734-3 0  9990
2 63262  97.6927  70.2077 0004587 348.6667  11.4452 15.00171566 70037
LEMUR-2-THEFALCONER     
1 63264U 25052BG  26176.69776302  .00003918  00000+0  34160-3 0  9994
2 63264  97.6848  68.9334 0001640  15.8769 344.2504 14.97435616 69963
LEMUR-2-UNTITLED-SC     
1 63351U 25061A   26176.88184565  .00004006  00000+0  22655-3 0  9991
2 63351  97.5637 152.1803 0017284 231.6623 128.3055 15.13529245 68906
LEMUR-2-ESPERANZA       
1 63352U 25061B   26176.85845382  .00003570  00000+0  20185-3 0  9991
2 63352  97.5640 152.2524 0016894 230.8858 129.0871 15.13620935 68901
LEMUR-2-KREMPEL-BRO2    
1 63353U 25061C   26176.48638933  .00004049  00000+0  22556-3 0  9999
2 63353  97.5690 152.4271 0017933 224.3430 135.6365 15.14056489 68861
LEMUR-2-THERMORAPTOR    
1 63354U 25061D   26176.86453659  .00003894  00000+0  21657-3 0  9990
2 63354  97.5693 152.8803 0017720 221.8314 138.1565 15.14140189 68925
LEMUR-2-NEUROSPICY      
1 63355U 25061E   26176.83554675  .00003708  00000+0  20591-3 0  9998
2 63355  97.5622 152.4708 0015457 225.1970 134.8006 15.14255392 68924
LEMUR-2-TILLINFINITY    
1 63356U 25061F   26176.86747654  .00004164  00000+0  22689-3 0  9990
2 63356  97.5605 152.7993 0017000 212.4815 147.5372 15.14841422 68953
LEMUR-2-KREMPEL-BRO1    
1 63357U 25061G   26176.84205942  .00003723  00000+0  20433-3 0  9993
2 63357  97.5606 152.6876 0017604 214.1122 145.8980 15.14646454 68947
LEMUR-2-LANGER2SPACE    
1 63358U 25061H   26176.87029472  .00004049  00000+0  22397-3 0  9992
2 63358  97.5612 152.5262 0015422 223.1296 136.8729 15.14343075 68934
LEMUR-2-BALTO           
1 63395U 25052BH  26176.65793102  .00006831  00000+0  55111-3 0  9998
2 63395  97.6920  70.1680 0006658  35.4862 324.6803 15.00175304 70038
LEMUR-2-KRISH           
1 64561U 25135AK  26176.83505477  .00005078  00000+0  45459-3 0  9998
2 64561  97.7745 291.6520 0001167  99.3197 260.8156 14.96276722 55218
LEMUR-2-HUBBLE-4        
1 64565U 25135AP  26176.24464968  .00001390  00000+0  13793-3 0  9995
2 64565  97.7646 290.0421 0002848 296.9282  63.1646 14.93362478 55075
LEMUR-2-SEJONG-2        
1 64586U 25135BL  26176.86224369  .00005678  00000+0  50137-3 0  9991
2 64586  97.7689 291.8232 0002908 304.6552  55.4395 14.96760928 55247
LEMUR-2-HUBBLE-5        
1 64840U 25135BT  26176.79648470  .00001929  00000+0  18560-3 0  9998
2 64840  97.7724 291.2462 0004352 321.3999  38.6909 14.94160437 55190
LEMUR-2-KARENDARRELL    
1 64841U 25135BU  26176.85601152  .00009430  00000+0  75721-3 0  9999
2 64841  97.7678 293.0492 0010441 169.2748 190.8700 15.00228904 55315
LEMUR-2-LUCILLE-ROSE    
1 65403U 25135BV  26176.56271877  .00008403  00000+0  67482-3 0  9993
2 65403  97.7749 292.7853 0012136 252.1371 107.8528 15.00248713 49895
LEMUR-2-AFFIE-WAUWIE    
1 66295U 25248C   26176.75498525  .00028463  00000+0  10454-2 0  9994
2 66295  45.3936  68.5606 0007568 143.0765 217.0646 15.27482662 35909
LEMUR-2-DEANANDMAEVE    
1 66678U 25276N   26176.74233791  .00008082  00000+0  38001-3 0  9995
2 66678  97.4218 250.0761 0004880 342.9738  17.1332 15.19830139 31712
LEMUR-2-STAS-GORBUK     
1 66686U 25276W   26176.69300378  .00006681  00000+0  31813-3 0  9991
2 66686  97.4247 250.0817 0004201 344.5266  15.5840 15.19462995 31702
LEMUR-2-TEODOR          
1 66768U 25276DG  26176.47011294  .00007005  00000+0  31771-3 0  9998
2 66768  97.4153 250.1094 0002364 108.5271 251.6221 15.21132918 31707
LEMUR-2-LAILA           
1 66776U 25276DQ  26176.70591324  .00006870  00000+0  30958-3 0  9995
2 66776  97.4177 250.4676 0002650 123.4295 236.7194 15.21358409 31743
LEMUR-2-CELIJO-SB-PK    
1 66781U 25276DW  26176.70854485  .00007646  00000+0  61759-3 0  9996
2 66781  97.5234 247.2062 0008209 112.0244 248.1853 15.00072455 23900
LEMUR-2-FINNIAN         
1 66782U 25276DX  26176.48319729  .00004970  00000+0  39918-3 0  9998
2 66782  97.5315 247.2128 0008637  65.1093 295.1028 15.00456880 21248
