OBJECT_NAME,OBJECT_ID,EPOCH,MEAN_MOTION,ECCENTRICITY,INCLINATION,RA_OF_ASC_NODE,ARG_OF_PERICENTER,MEAN_ANOMALY,EPHEMERIS_TYPE,CLASSIFICATION_TYPE,NORAD_CAT_ID,ELEMENT_SET_NO,REV_AT_EPOCH,BSTAR,MEAN_MOTION_DOT,MEAN_MOTION_DDOT
LEMUR-2-ROUNDTRIPPER,2025-009DG,2026-06-25T19:26:39.469920,15.03922316,.0005632,97.7251,259.4776,109.8270,250.3563,0,U,62711,999,7892,.74679E-3,.10247E-3,0
LEMUR-2-MYNAMEISJEFF,2025-009DH,2026-06-25T13:01:06.296736,15.03916865,.0004029,97.7294,259.5966,135.3275,224.8275,0,U,62712,999,7888,.76764E-3,.10532E-3,0
LEMUR-2-LEIA-PHILIP,2025-052AN,2026-06-25T16:34:12.173952,14.97334030,.0003566,97.6822,68.4981,181.8583,178.2626,0,U,63246,999,6994,.10722E-3,.1187E-4,0
LEMUR-2-LIA-MARTIN,2025-052AQ,2026-06-25T16:37:22.850976,14.97861459,.0003676,97.6878,68.9877,142.7676,217.3801,0,U,63248,999,6995,.45591E-3,.5308E-4,0
LEMUR-2-DELOITTE-1,2025-052BB,2026-06-25T16:04:58.717056,14.97662465,.0003255,97.6929,69.2960,78.9784,281.1804,0,U,63259,999,6996,.34015E-3,.3924E-4,0
LEMUR-2-EMERSONROSE,2025-052BD,2026-06-25T16:53:21.884928,14.99135608,.0001994,97.6878,69.9022,77.7465,282.3981,0,U,63261,999,7001,.39461E-3,.474E-4,0
LEMUR-2-MARACHE-FRAN,2025-052BE,2026-06-25T16:09:24.549984,15.00171566,.0004587,97.6927,70.2077,348.6667,11.4452,0,U,63262,999,7003,.44734E-3,.5531E-4,0
LEMUR-2-THEFALCONER,2025-052BG,2026-06-25T16:44:46.724928,14.97435616,.000164,97.6848,68.9334,15.8769,344.2504,0,U,63264,999,6996,.3416E-3,.3918E-4,0
LEMUR-2-UNTITLED-SC,2025-061A,2026-06-25T21:09:51.464160,15.13529245,.0017284,97.5637,152.1803,231.6623,128.3055,0,U,63351,999,6890,.22655E-3,.4006E-4,0
LEMUR-2-ESPERANZA,2025-061B,2026-06-25T20:36:10.410048,15.13620935,.0016894,97.5640,152.2524,230.8858,129.0871,0,U,63352,999,6890,.20185E-3,.357E-4,0
LEMUR-2-KREMPEL-BRO2,2025-061C,2026-06-25T11:40:24.038112,15.14056489,.0017933,97.5690,152.4271,224.3430,135.6365,0,U,63353,999,6886,.22556E-3,.4049E-4,0
LEMUR-2-THERMORAPTOR,2025-061D,2026-06-25T20:44:55.961376,15.14140189,.001772,97.5693,152.8803,221.8314,138.1565,0,U,63354,999,6892,.21657E-3,.3894E-4,0
LEMUR-2-NEUROSPICY,2025-061E,2026-06-25T20:03:11.239200,15.14255392,.0015457,97.5622,152.4708,225.1970,134.8006,0,U,63355,999,6892,.20591E-3,.3708E-4,0
LEMUR-2-TILLINFINITY,2025-061F,2026-06-25T20:49:09.973056,15.14841422,.0017,97.5605,152.7993,212.4815,147.5372,0,U,63356,999,6895,.22689E-3,.4164E-4,0
LEMUR-2-KREMPEL-BRO1,2025-061G,2026-06-25T20:12:33.933888,15.14646454,.0017604,97.5606,152.6876,214.1122,145.8980,0,U,63357,999,6894,.20433E-3,.3723E-4,0
LEMUR-2-LANGER2SPACE,2025-061H,2026-06-25T20:53:13.463808,15.14343075,.0015422,97.5612,152.5262,223.1296,136.8729,0,U,63358,999,6893,.22397E-3,.4049E-4,0
LEMUR-2-BALTO,2025-052BH,2026-06-25T15:47:25.240128,15.00175304,.0006658,97.6920,70.1680,35.4862,324.6803,0,U,63395,999,7003,.55111E-3,.6831E-4,0
LEMUR-2-KRISH,2025-135AK,2026-06-25T20:02:28.732128,14.96276722,.0001167,97.7745,291.6520,99.3197,260.8156,0,U,64561,999,5521,.45459E-3,.5078E-4,0
LEMUR-2-HUBBLE-4,2025-135AP,2026-06-25T05:52:17.732352,14.93362478,.0002848,97.7646,290.0421,296.9282,63.1646,0,U,64565,999,5507,.13793E-3,.139E-4,0
LEMUR-2-SEJONG-2,2025-135BL,2026-06-25T20:41:37.854816,14.96760928,.0002908,97.7689,291.8232,304.6552,55.4395,0,U,64586,999,5524,.50137E-3,.5678E-4,0
LEMUR-2-HUBBLE-5,2025-135BT,2026-06-25T19:06:56.278080,14.94160437,.0004352,97.7724,291.2462,321.3999,38.6909,0,U,64840,999,5519,.1856E-3,.1929E-4,0
LEMUR-2-KARENDARRELL,2025-135BU,2026-06-25T20:32:39.395328,15.00228904,.0010441,97.7678,293.0492,169.2748,190.8700,0,U,64841,999,5531,.75721E-3,.943E-4,0
LEMUR-2-LUCILLE-ROSE,2025-135BV,2026-06-25T13:30:18.901728,15.00248713,.0012136,97.7749,292.7853,252.1371,107.8528,0,U,65403,999,4989,.67482E-3,.8403E-4,0
LEMUR-2-AFFIE-WAUWIE,2025-248C,2026-06-25T18:07:10.725600,15.27482662,.0007568,45.3936,68.5606,143.0765,217.0646,0,U,66295,999,3590,.10454E-2,.28463E-3,0
LEMUR-2-DEANANDMAEVE,2025-276N,2026-06-25T17:48:57.995424,15.19830139,.000488,97.4218,250.0761,342.9738,17.1332,0,U,66678,999,3171,.38001E-3,.8082E-4,0
LEMUR-2-STAS-GORBUK,2025-276W,2026-06-25T16:37:55.526592,15.19462995,.0004201,97.4247,250.0817,344.5266,15.5840,0,U,66686,999,3170,.31813E-3,.6681E-4,0
LEMUR-2-TEODOR,2025-276DG,2026-06-25T11:16:57.758016,15.21132918,.0002364,97.4153,250.1094,108.5271,251.6221,0,U,66768,999,3170,.31771E-3,.7005E-4,0
LEMUR-2-LAILA,2025-276DQ,2026-06-25T16:56:30.903936,15.21358409,.000265,97.4177,250.4676,123.4295,236.7194,0,U,66776,999,3174,.30958E-3,.687E-4,0
LEMUR-2-CELIJO-SB-PK,2025-276DW,2026-06-25T17:00:18.275040,15.00072455,.0008209,97.5234,247.2062,112.0244,248.1853,0,U,66781,999,2390,.61759E-3,.7646E-4,0
LEMUR-2-FINNIAN,2025-276DX,2026-06-25T11:35:48.245856,15.00456880,.0008637,97.5315,247.2128,65.1093,295.1028,0,U,66782,999,2124,.39918E-3,.497E-4,0
